#dP2024  1 15 12  0  0.00000000      96 __u+U IGS20 EXT  IAC
## 2297 129600.00000000   900.00000000 60324 0.5000000000000
+  118   C06C07C08C09C10C11C12C13C14C16C19C20C21C22C23C24C25
+        C26C27C28C29C30C32C33C34C35C36C37C38C39C40C41C42C43
+        C44C45C46E02E03E04E05E07E08E09E10E11E12E13E14E15E18
+        E19E21E24E25E26E27E30E31E33E34E36G01G02G03G04G05G06
+        G07G08G09G10G11G12G13G14G15G16G17G18G19G20G21G22G23
+        G24G25G26G28G29G30G31G32J02J04R01R02R03R04R05R07R08
+        R09R11R12R13R14R15R16R17R18R19R20R21R22R24R25R26  0
++        10  8  9  8  8  9  8  8 10 10  9  8  7  8  7  9  8
++         7  7 10  9 10  8  9  8  8  9 10  9 10  9  9  7  9
++         7  9  8  8  8  8  7  7  9  8  7  7  9  7  7  7  8
++         7  7  8  8  7  8  7  7  8  7  6  7  7  7  7  7  7
++         8  8  7 10  8  6  7  8  6  7  6  6  6  7  7  7  8
++         7  7  7  7  8  7  7  7  9 13 10  9  7  7  8  9  7
++         8 10  8  7  6  7  7  8  7  8  8  8  7  8  8 14  0
%c M  cc GPS ccc cccc cccc cccc cccc ccccc ccccc ccccc ccccc
%c cc cc ccc ccc cccc cccc cccc cccc ccccc ccccc ccccc ccccc
%f  0.0000000  0.000000000  0.00000000000  0.000000000000000
%f  0.0000000  0.000000000  0.00000000000  0.000000000000000
%i    0    0    0    0      0      0      0      0         0
%i    0    0    0    0      0      0      0      0         0
/* IAC                                ULTRA-RAPID PREDICTION
/* S/V CLOCKS ARE ALIGNED TO GNSS TIME                      
/* G:C1WC2W R:C1PC2P E:C1XC5X C:C2IC6I J:C1CC2S             
/* PCV:IGS20_2290 OL/AL:FES2004  NONE     YN ORB:CoN CLK:CoN
*  2024 01 15 16 45  0.00000000
PC06 -17599.241361  25838.745140 -28392.990352     49.789232
PC07  -8667.671118  40911.529998  -4276.569061   -642.249486
PC08   1952.434331  26486.379845  32812.677489    110.471779
PC09  -7146.647566  25341.945368 -32619.753230   -356.727614
PC10  -3367.463078  41703.250761   1661.970514    124.839395
PC11 -22735.642108   1405.764471 -16040.748775    359.607953
PC12  -8073.752725 -13163.433339 -23199.337425    795.602353
PC13   8251.055368  30112.898955  28644.276070    407.723187
PC14 -15563.139984  -6369.608991  22293.926229    -26.740282
PC16 -18243.046627  25319.011452 -28237.137231   -283.169108
PC19  15180.843304  -4924.623210 -22868.210654   -937.612131
PC20  13831.537679  14836.877739 -19142.283961    -68.217380
PC21  -3909.810122 -27431.343892   3418.957321   -964.221930
PC22   7924.102608 -23015.383703 -13667.192177   -146.666549
PC23 -12167.150685  11832.911309 -22156.892785   -790.061692
PC24 -23084.601167 -15035.284982   4332.296356    792.328293
PC25 -24640.280413  -1195.597311 -13039.820378    302.527897
PC26  -8916.673269 -18901.585285  18453.518802   -235.132414
PC27   -629.536151  18086.825379  21229.429567    257.145020
PC28 -16735.539660  19666.043857  10590.315938    195.091104
PC29  24600.444500  -9799.641099   8797.014546    228.550122
PC30  16558.854468   6725.250714  21421.528110    -15.491703
PC32   4039.996356  27410.863109  -3275.516213   -554.101520
PC33 -15211.504187   4868.044106  22886.760112   -943.290978
PC34 -17756.838764  -5469.934768 -20836.955940    347.778077
PC35  15966.214586 -20294.047113 -10540.477198    456.611821
PC36  24849.285658   2298.633251  12515.600619    -51.654788
PC37   7972.439154  19076.647964 -18754.226062   -931.969798
PC38  -6927.059705  23267.409921  34542.522155    130.639147
PC39 -24377.822270  25556.351634 -23143.442673     -6.661262
PC40 -15236.075457  38395.582087  -7672.055046    -52.213877
PC41  -8345.201374  22462.400854  14350.266170   -880.001842
PC42 -13425.235079 -16378.029976  18229.255537   -465.476201
PC43 -24620.721662   9029.311273  -9583.721058     56.511191
PC44     -9.721085 -18270.760819 -21094.645134    354.654088
PC45  11827.297153 -11894.508029  22294.096874    -63.281593
PC46  23552.200544  14616.573104  -3435.396774   -115.876161
PE02  13927.619951  26102.055934  -1280.667248     95.282150
PE03   4760.702650  20705.677315 -20613.220241    -87.193271
PE04 -17749.659560  -2182.849196  23592.527949   -304.303597
PE05 -10846.542356  26953.971785  -5668.566178   4710.598045
PE07  20303.156008 -17146.734710 -13037.407474    -98.547756
PE08  17340.853018   2802.874535 -23827.375673   -208.445581
PE09 -20245.777646  17082.072283  13200.645749   -300.557503
PE10 -29506.650758   1382.004740   1888.234669   -594.364800
PE11 -25924.273546   7810.507556  11978.449299   3279.728886
PE12 -28306.305610  -4668.397514  -7326.992778   -863.964677
PE13  26297.168138  -7405.174505 -11370.934821    -19.912325
PE14  11013.644464 -29323.187842  -7652.600896     11.344900
PE15  28095.186371   4956.516797   7887.706786    -80.340503
PE18  -9768.160286  21188.741863   4158.988108    214.149666
PE19  -2692.269256 -22169.715139  19429.182986   -807.334524
PE21    284.532305 -23796.213167  17589.200898   -574.032462
PE24 -15336.420465   7125.268277 -24314.037108   -543.653286
PE25   -603.513100  23608.526250 -17854.127588     -0.478985
PE26   8424.952200 -15508.028955 -23751.221457    340.122805
PE27  15038.873259  -7544.968505  24348.060749   -250.079102
PE30  20726.974189  13270.270642  16443.300139   -826.829935
PE31 -20744.874903 -12937.947595 -16679.686374    -13.833907
PE33 -12814.241093 -14379.656101 -22466.197086      5.995905
PE34  13448.257348  14201.988558  22222.345157    -89.149979
PE36  -9165.515288  15240.883405  23673.367720   -172.225956
PG01 -13620.235323 -12805.972680 -19358.527179    166.188917
PG02  -6199.470365 -14071.313130 -21188.158544   -500.451458
PG03 -11303.247778 -23857.397998  -3593.778745    128.087065
PG04  -3213.126391 -19024.389141  18204.916635    266.808930
PG05   3358.640165  22291.282914  13798.291998   -158.074830
PG06 -23774.751980   6597.800048  10037.811600    443.670013
PG07 -24379.981090  -6516.959545   9499.889746    -38.022973
PG08   2724.582254 -23421.994408 -11878.470481   -162.240336
PG09 -13000.201538  -7987.287265  21655.298014     59.785953
PG10  16524.975107    820.456056 -20652.595047    -69.455816
PG11 -15025.310482  12093.450786  18263.569752   -540.914297
PG12   9479.481171  24611.092357  -3741.613343   -468.168778
PG13 -12781.347344  22607.627740  -5179.875614    616.135882
PG14 -18138.699564  -4568.265154 -18902.376492    299.441449
PG15    322.111323  23877.769742 -11889.923175    117.530781
PG16   4511.554530 -18869.540109  17598.489488   -383.544372
PG17 -18378.119069   5996.456714 -17850.161192    719.802971
PG18  24930.171863   5404.015206   7745.484153   -532.768995
PG19 -19497.521909  13347.688706 -11951.948264    426.949937
PG20  -7343.280165  14506.877392  21088.049957    391.386881
PG21  -1598.423318 -14871.870860 -21445.396278    138.306788
PG22 -14803.334367   3480.029168 -21320.683765     47.762367
PG23  18972.438218  12841.859938 -13579.271615    135.947068
PG24   4917.976086  15457.768940 -21474.984034   -414.349381
PG25  17126.820813  19421.866351   6182.615323    485.353639
PG26  11479.482715 -10966.435012  21123.655991    200.046754
PG28  24902.198402  -6019.184476   6970.475572    -99.644514
PG29  11200.733445   9997.696259  21857.199646   -608.647447
PG30 -26661.551857   1023.205784  -1070.072430   -445.087666
PG31  19843.952747 -10127.270144  14550.371475   -227.319117
PG32  18309.844232  -9916.374386 -16170.115927   -605.268966
PJ02 -21119.067589  22820.352440 -23833.888594     -1.194956
PJ04 -26371.294294  29706.149963  19978.948034     76.972775
PR01   -939.683803  25302.644958  -3062.312084     74.644333
PR02   6440.030368  16499.440770 -18343.080818    -22.395820
PR03  11042.393147  -1785.184710 -22872.284411     92.752233
PR04   9350.312836 -18531.891143 -14782.565744    219.419122
PR05   2799.489493 -25305.983641   1306.380768    125.391914
PR07 -11146.688478   2850.333251  22812.647989     73.633099
PR08  -9273.141577  18758.506526  14675.750922    -74.034446
PR09 -19539.861230 -16041.832168   3709.411425    164.526582
PR11 -11376.287003   4812.625545 -22314.659021    -41.812755
PR12   6428.043705  16011.129591 -18778.332369     35.639908
PR13  18205.567339  16819.467388  -6063.767932    -43.319467
PR14  20654.800298   7229.345431  13097.241516     25.942803
PR15  10275.484223  -5917.030999  22595.409299     83.073219
PR16  -6316.618683 -15787.347652  19027.850999     22.477954
PR17  23242.164801  -5144.821780   9227.983649     52.622932
PR18  21159.138267 -12138.199735  -7343.425890    122.273109
PR19  10236.657858 -13010.581930 -19399.562604   -262.177488
PR20 -11496.021326  -6163.848960 -21915.160510   -106.822207
PR21 -23339.527918   5220.807327  -8832.256406    -69.161669
PR22 -20930.896017  11988.726428   8351.909074    103.298456
PR24  12401.196392   5826.508849  21540.962001    -40.003288
PR25 -23477.887134   4106.595938  -9055.355288     38.964989
PR26  -9359.061625  18154.853078  15288.525971   -203.361007
EOF
